[{"OBJECT_NAME":"UTMN 2 (RS27S)","OBJECT_ID":"2023-091AP","EPOCH":"2026-03-09T23:09:07.917408","MEAN_MOTION":15.29495965,"ECCENTRICITY":0.00097379,"INCLINATION":97.5194,"RA_OF_ASC_NODE":134.949,"ARG_OF_PERICENTER":76.0788,"MEAN_ANOMALY":284.1534,"EPHEMERIS_TYPE":0,"CLASSIFICATION_TYPE":"U","NORAD_CAT_ID":57203,"ELEMENT_SET_NO":999,"REV_AT_EPOCH":14936,"BSTAR":0.00056135701,"MEAN_MOTION_DOT":0.00016013,"MEAN_MOTION_DDOT":0},{"OBJECT_NAME":"STARLINK-31665","OBJECT_ID":"2024-084B","EPOCH":"2026-03-09T07:06:07.697952","MEAN_MOTION":15.27569495,"ECCENTRICITY":0.00017995,"INCLINATION":43.0061,"RA_OF_ASC_NODE":40.5043,"ARG_OF_PERICENTER":262.0868,"MEAN_ANOMALY":97.978,"EPHEMERIS_TYPE":0,"CLASSIFICATION_TYPE":"U","NORAD_CAT_ID":59655,"ELEMENT_SET_NO":999,"REV_AT_EPOCH":10435,"BSTAR":-0.00010616998,"MEAN_MOTION_DOT":-3.182e-5,"MEAN_MOTION_DDOT":0}]
